[
    {
        "Altitude(m)": 610405.2740898146,
        "Argument of Periapsis(deg)": 0.0,
        "Eccentricity": 0.0,
        "Inclination(deg)": 60.0,
        "Latitude(deg)": 52.11113655580001,
        "Longitude(deg)": -92.52255178317634,
        "Mean Anomaly(deg)": 114.5455,
        "RAAN(deg)": 235.0,
        "Satellite Name": "Test1 1041",
        "Satellite Number": 1041,
        "Semi-Major Axis(m)": 6980739.136638005,
        "Time(s)": 0
    },
    {
        "Altitude(m)": 610321.8468040234,
        "Argument of Periapsis(deg)": 0.00010418945913296404,
        "Eccentricity": 0.0,
        "Inclination(deg)": 60.0,
        "Latitude(deg)": 51.74585121615693,
        "Longitude(deg)": -91.7536606415633,
        "Mean Anomaly(deg)": 115.16560614546188,
        "RAAN(deg)": 234.99957995086027,
        "Satellite Name": "Test1 1041",
        "Satellite Number": 1041,
        "Semi-Major Axis(m)": 6980739.136638005,
        "Time(s)": 10
    }
]